ONEWEB-0032             
1 45141U 20008L   24022.49407720  .00000343  00000+0  94763-3 0  9999
2 45141  87.8895 210.4451 0001629  93.8253 266.3060 13.10374995194343
ONEWEB-0033             
1 45142U 20008M   24022.46806374 -.00000649  00000+0 -18946-2 0  9994
2 45142  87.8893 210.4581 0001699  85.3181 274.8140 13.10372155194292
ONEWEB-0035             
1 45143U 20008N   24021.88973423  .00000636  00000+0  17858-2 0  9995
2 45143  87.8899 210.5467 0001646  88.4894 271.6422 13.10373230193045
ONEWEB-0036             
1 45144U 20008P   24022.49083322  .00000290  00000+0  79581-3 0  9992
2 45144  87.8899 210.3901 0001379  96.5435 263.5849 13.10378466194412
ONEWEB-0038             
1 45145U 20008Q   24022.50613864 -.00000478  00000+0 -13845-2 0  9995
2 45145  87.8969 195.3048 0002129 114.1740 245.9610 13.11417090196213
ONEWEB-0039             
1 45146U 20008R   24022.47131857 -.00000605  00000+0 -17692-2 0  9995
2 45146  87.8897 210.4093 0001310 112.7288 247.3978 13.10374370194128
ONEWEB-0040             
1 45147U 20008S   24022.08302758 -.00000595  00000+0 -17412-2 0  9991
2 45147  87.8901 210.4782 0001499  95.9053 264.2245 13.10370441193781
ONEWEB-0041             
1 45148U 20008T   24021.94574165  .00000129  00000+0  18565-3 0  9991
2 45148  87.9432 186.1942 0016434 222.6082 137.3793 13.48437784199829
